{"type": "FeatureCollection", "features": [ {"type": "Feature", "properties": {"norad_id": 32205, "name": "FENGYUN 1C DEB", "group": "fengyun-1c-debris", "lat": -52.24808928864479, "lon": 11.688657543563757, "alt_km": 847.8426933522051, "timestamp": "2025-12-22T16:55:17.749578+00:00", "meta": {"OBJECT_NAME": "FENGYUN 1C DEB", "OBJECT_ID": "1999-025CVB", "EPOCH": "2025-12-18T23:17:52.577952", "MEAN_MOTION": 14.13915552, "ECCENTRICITY": 0.0009966, "INCLINATION": 98.6782, "RA_OF_ASC_NODE": 356.6881, "ARG_OF_PERICENTER": 272.3961, "MEAN_ANOMALY": 117.0871, "EPHEMERIS_TYPE": 0, "CLASSIFICATION_TYPE": "U", "NORAD_CAT_ID": 32205, "ELEMENT_SET_NO": 999, "REV_AT_EPOCH": 94586, "BSTAR": 0.00014442798, "MEAN_MOTION_DOT": 2.31e-06, "MEAN_MOTION_DDOT": 0}, "tle": {"line1": "1 32205U 99025CVB 25352.97074743  .00000231  00000+0  14443-3 0  9999", "line2": "2 32205  98.6782 356.6881 0009966 272.3961 117.0871 14.13915552945864"}}, "geometry": {"type": "Point", "coordinates": [11.688657543563757, -52.24808928864479]}}, {"type": "Feature", "properties": {"norad_id": 32207, "name": "FENGYUN 1C DEB", "group": "fengyun-1c-debris", "lat": -58.72889123934248, "lon": 120.4734738454218, "alt_km": 806.4849249264416, "timestamp": "2025-12-22T16:55:17.749589+00:00", "meta": {"OBJECT_NAME": "FENGYUN 1C DEB", "OBJECT_ID": "1999-025CVD", "EPOCH": "2025-12-12T04:00:31.760928", "MEAN_MOTION": 14.39569701, "ECCENTRICITY": 0.00852472, "INCLINATION": 99.8553, "RA_OF_ASC_NODE": 305.0027, "ARG_OF_PERICENTER": 139.3042, "MEAN_ANOMALY": 236.8167, "EPHEMERIS_TYPE": 0, "CLASSIFICATION_TYPE": "U", "NORAD_CAT_ID": 32207, "ELEMENT_SET_NO": 999, "REV_AT_EPOCH": 64299, "BSTAR": 0.00048704631, "MEAN_MOTION_DOT": 1.529e-05, "MEAN_MOTION_DDOT": 0}, "tle": {"line1": "1 32207U 99025CVD 25346.16703427  .00001529  00000+0  48705-3 0  9992", "line2": "2 32207  99.8553 305.0027 0085247 139.3042 236.8167 14.39569701642998"}}, "geometry": {"type": "Point", "coordinates": [120.4734738454218, -58.72889123934248]}}, {"type": "Feature", "properties": {"norad_id": 32209, "name": "FENGYUN 1C DEB", "group": "fengyun-1c-debris", "lat": 42.433967781254694, "lon": -65.17413025146088, "alt_km": 892.6667814931916, "timestamp": "2025-12-22T16:55:17.749599+00:00", "meta": {"OBJECT_NAME": "FENGYUN 1C DEB", "OBJECT_ID": "1999-025CVF", "EPOCH": "2025-12-16T19:55:00.323040", "MEAN_MOTION": 13.47189962, "ECCENTRICITY": 0.0333308, "INCLINATION": 99.4209, "RA_OF_ASC_NODE": 298.0158, "ARG_OF_PERICENTER": 15.1266, "MEAN_ANOMALY": 345.9549, "EPHEMERIS_TYPE": 0, "CLASSIFICATION_TYPE": "U", "NORAD_CAT_ID": 32209, "ELEMENT_SET_NO": 999, "REV_AT_EPOCH": 90031, "BSTAR": 0.0022098107, "MEAN_MOTION_DOT": 1.847e-05, "MEAN_MOTION_DDOT": 0}, "tle": {"line1": "1 32209U 99025CVF 25350.82986485  .00001847  00000+0  22098-2 0  9998", "line2": "2 32209  99.4209 298.0158 0333308  15.1266 345.9549 13.47189962900317"}}, "geometry": {"type": "Point", "coordinates": [-65.17413025146088, 42.433967781254694]}}, {"type": "Feature", "properties": {"norad_id": 32212, "name": "FENGYUN 1C DEB", "group": "fengyun-1c-debris", "lat": -32.30132220286109, "lon": 100.69463235637136, "alt_km": 749.049457270401, "timestamp": "2025-12-22T16:55:17.749610+00:00", "meta": {"OBJECT_NAME": "FENGYUN 1C DEB", "OBJECT_ID": "1999-025CVJ", "EPOCH": "2025-12-17T05:30:07.163712", "MEAN_MOTION": 14.40337107, "ECCENTRICITY": 0.01377953, "INCLINATION": 99.5731, "RA_OF_ASC_NODE": 88.4501, "ARG_OF_PERICENTER": 65.5611, "MEAN_ANOMALY": 325.7716, "EPHEMERIS_TYPE": 0, "CLASSIFICATION_TYPE": "U", "NORAD_CAT_ID": 32212, "ELEMENT_SET_NO": 999, "REV_AT_EPOCH": 96126, "BSTAR": 0.00030524144, "MEAN_MOTION_DOT": 1.024e-05, "MEAN_MOTION_DDOT": 0}, "tle": {"line1": "1 32212U 99025CVJ 25351.22924958  .00001024  00000+0  30524-3 0  9995", "line2": "2 32212  99.5731  88.4501 0137795  65.5611 325.7716 14.40337107961263"}}, "geometry": {"type": "Point", "coordinates": [100.69463235637136, -32.30132220286109]}}, {"type": "Feature", "properties": {"norad_id": 32214, "name": "FENGYUN 1C DEB", "group": "fengyun-1c-debris", "lat": 1.4432438648472843, "lon": -157.7128930173579, "alt_km": 1062.456312134882, "timestamp": "2025-12-22T16:55:17.749621+00:00", "meta": {"OBJECT_NAME": "FENGYUN 1C DEB", "OBJECT_ID": "1999-025CVL", "EPOCH": "2025-12-21T13:11:06.590112", "MEAN_MOTION": 13.90626456, "ECCENTRICITY": 0.0188039, "INCLINATION": 99.042, "RA_OF_ASC_NODE": 20.9323, "ARG_OF_PERICENTER": 15.143, "MEAN_ANOMALY": 140.2339, "EPHEMERIS_TYPE": 0, "CLASSIFICATION_TYPE": "U", "NORAD_CAT_ID": 32214, "ELEMENT_SET_NO": 999, "REV_AT_EPOCH": 62544, "BSTAR": 0.0033036, "MEAN_MOTION_DOT": 4.71e-05, "MEAN_MOTION_DDOT": 0}, "tle": {"line1": "1 32214U 99025CVL 25355.54938183  .00004710  00000+0  33036-2 0  9996", "line2": "2 32214  99.0420  20.9323 0188039  15.1430 140.2339 13.90626456625445"}}, "geometry": {"type": "Point", "coordinates": [-157.7128930173579, 1.4432438648472843]}}, {"type": "Feature", "properties": {"norad_id": 32218, "name": "FENGYUN 1C DEB", "group": "fengyun-1c-debris", "lat": -34.33249305843689, "lon": 5.033903290482277, "alt_km": 758.4184673485497, "timestamp": "2025-12-22T16:55:17.749631+00:00", "meta": {"OBJECT_NAME": "FENGYUN 1C DEB", "OBJECT_ID": "1999-025CVQ", "EPOCH": "2025-12-20T19:28:12.294624", "MEAN_MOTION": 14.55536952, "ECCENTRICITY": 0.00630558, "INCLINATION": 98.8112, "RA_OF_ASC_NODE": 189.118, "ARG_OF_PERICENTER": 43.2318, "MEAN_ANOMALY": 333.7092, "EPHEMERIS_TYPE": 0, "CLASSIFICATION_TYPE": "U", "NORAD_CAT_ID": 32218, "ELEMENT_SET_NO": 999, "REV_AT_EPOCH": 96350, "BSTAR": 0.00051880203, "MEAN_MOTION_DOT": 2.268e-05, "MEAN_MOTION_DDOT": 0}, "tle": {"line1": "1 32218U 99025CVQ 25354.81125341  .00002268  00000+0  51880-3 0  9997", "line2": "2 32218  98.8112 189.1180 0063055  43.2318 333.7092 14.55536952963500"}}, "geometry": {"type": "Point", "coordinates": [5.033903290482277, -34.33249305843689]}}, {"type": "Feature", "properties": {"norad_id": 32221, "name": "FENGYUN 1C DEB", "group": "fengyun-1c-debris", "lat": -38.590582692319835, "lon": -39.970585219618336, "alt_km": 727.1421337924357, "timestamp": "2025-12-22T16:55:17.749641+00:00", "meta": {"OBJECT_NAME": "FENGYUN 1C DEB", "OBJECT_ID": "1999-025CVT", "EPOCH": "2025-12-21T08:39:23.372352", "MEAN_MOTION": 14.5872858, "ECCENTRICITY": 0.01470508, "INCLINATION": 98.5661, "RA_OF_ASC_NODE": 145.5519, "ARG_OF_PERICENTER": 119.3127, "MEAN_ANOMALY": 242.2856, "EPHEMERIS_TYPE": 0, "CLASSIFICATION_TYPE": "U", "NORAD_CAT_ID": 32221, "ELEMENT_SET_NO": 999, "REV_AT_EPOCH": 97323, "BSTAR": 0.00025684348, "MEAN_MOTION_DOT": 1.336e-05, "MEAN_MOTION_DDOT": 0}, "tle": {"line1": "1 32221U 99025CVT 25355.36068718  .00001336  00000+0  25684-3 0  9994", "line2": "2 32221  98.5661 145.5519 0147050 119.3127 242.2856 14.58728580973239"}}, "geometry": {"type": "Point", "coordinates": [-39.970585219618336, -38.590582692319835]}}, {"type": "Feature", "properties": {"norad_id": 32223, "name": "FENGYUN 1C DEB", "group": "fengyun-1c-debris", "lat": -11.408198432348302, "lon": -106.02881659097673, "alt_km": 830.5066347790143, "timestamp": "2025-12-22T16:55:17.749652+00:00", "meta": {"OBJECT_NAME": "FENGYUN 1C DEB", "OBJECT_ID": "1999-025CVV", "EPOCH": "2025-12-13T23:18:00.552672", "MEAN_MOTION": 14.20905079, "ECCENTRICITY": 0.00468432, "INCLINATION": 98.839, "RA_OF_ASC_NODE": 67.0353, "ARG_OF_PERICENTER": 313.8611, "MEAN_ANOMALY": 224.3875, "EPHEMERIS_TYPE": 0, "CLASSIFICATION_TYPE": "U", "NORAD_CAT_ID": 32223, "ELEMENT_SET_NO": 999, "REV_AT_EPOCH": 64241, "BSTAR": 0.0016444924, "MEAN_MOTION_DOT": 3.554e-05, "MEAN_MOTION_DDOT": 0}, "tle": {"line1": "1 32223U 99025CVV 25347.97083973  .00003554  00000+0  16445-2 0  9992", "line2": "2 32223  98.8390  67.0353 0046843 313.8611 224.3875 14.20905079642418"}}, "geometry": {"type": "Point", "coordinates": [-106.02881659097673, -11.408198432348302]}}, {"type": "Feature", "properties": {"norad_id": 32224, "name": "FENGYUN 1C DEB", "group": "fengyun-1c-debris", "lat": 52.39834107153129, "lon": -63.75555521242773, "alt_km": 720.2847441609792, "timestamp": "2025-12-22T16:55:17.749663+00:00", "meta": {"OBJECT_NAME": "FENGYUN 1C DEB", "OBJECT_ID": "1999-025CVW", "EPOCH": "2025-12-22T03:16:52.028256", "MEAN_MOTION": 14.34039895, "ECCENTRICITY": 0.00769239, "INCLINATION": 98.9856, "RA_OF_ASC_NODE": 307.5101, "ARG_OF_PERICENTER": 39.3734, "MEAN_ANOMALY": 321.3006, "EPHEMERIS_TYPE": 0, "CLASSIFICATION_TYPE": "U", "NORAD_CAT_ID": 32224, "ELEMENT_SET_NO": 999, "REV_AT_EPOCH": 95858, "BSTAR": 0.00031769868, "MEAN_MOTION_DOT": 8.7e-06, "MEAN_MOTION_DDOT": 0}, "tle": {"line1": "1 32224U 99025CVW 25356.13671329  .00000870  00000+0  31770-3 0  9996", "line2": "2 32224  98.9856 307.5101 0076923  39.3734 321.3006 14.34039895958589"}}, "geometry": {"type": "Point", "coordinates": [-63.75555521242773, 52.39834107153129]}}, {"type": "Feature", "properties": {"norad_id": 32225, "name": "FENGYUN 1C DEB", "group": "fengyun-1c-debris", "lat": -22.567218766039282, "lon": 49.33696480624463, "alt_km": 902.6881623148729, "timestamp": "2025-12-22T16:55:17.749674+00:00", "meta": {"OBJECT_NAME": "FENGYUN 1C DEB", "OBJECT_ID": "1999-025CVX", "EPOCH": "2025-12-18T09:22:02.510112", "MEAN_MOTION": 14.13050119, "ECCENTRICITY": 0.00719651, "INCLINATION": 99.0915, "RA_OF_ASC_NODE": 41.1408, "ARG_OF_PERICENTER": 190.6397, "MEAN_ANOMALY": 169.3256, "EPHEMERIS_TYPE": 0, "CLASSIFICATION_TYPE": "U", "NORAD_CAT_ID": 32225, "ELEMENT_SET_NO": 999, "REV_AT_EPOCH": 68196, "BSTAR": 0.00018827687, "MEAN_MOTION_DOT": 3.14e-06, "MEAN_MOTION_DDOT": 0}, "tle": {"line1": "1 32225U 99025CVX 25352.39030683  .00000314  00000+0  18828-3 0  9995", "line2": "2 32225  99.0915  41.1408 0071965 190.6397 169.3256 14.13050119681967"}}, "geometry": {"type": "Point", "coordinates": [49.33696480624463, -22.567218766039282]}}]}